# TLEs retrieved from www.space-track.org
# Copy from https://www.space-track.org/basicspacedata/query/class/tle_latest/NORAD_CAT_ID/58928U,25544U,25994U,27424U,28376U,29107U,29108U,37849U,42063U,40697U,43613U,59908U,59881U/EPOCH/%3Enow-10/ORDINAL/1/orderby/EPOCH%20desc/limit/14/format/3le/metadata/false
# retrieved on 2024-06-09
0 AQUA
1 27424U 02022A   24161.63787243  .00002144  00000-0  46293-3 0  9997
2 27424  98.3302 110.9790 0002089  99.7881  24.6663 14.59362424175576
0 TERRA
1 25994U 99068A   24161.63490479  .00001064  00000-0  23203-3 0  9991
2 25994  98.0484 225.3443 0002853  55.2874  99.7315 14.59802392301940
0 EARTHCARE
1 59908U 24101A   24161.62388414  .00017454  00000-0  27237-3 0  9994
2 59908  96.9802 289.6018 0005462 126.6473 233.5285 15.53868514  1811
0 AURA
1 28376U 04026A   24161.61883426  .00002139  00000-0  46889-3 0  9993
2 28376  98.2509 106.5077 0002294  86.7674 273.3788 14.58649448 58578
0 ICESAT-2
1 43613U 18070A   24161.59585281  .00018941  00000-0  70321-3 0  9999
2 43613  92.0022  92.6029 0009076  96.9319 263.2962 15.27478034319814
0 SENTINEL 2B
1 42063U 17013A   24161.58516965  .00000342  00000-0  14728-3 0  9990
2 42063  98.5693 235.9571 0001180  94.0629 266.0689 14.30816363379167
0 CALIPSO
1 29108U 06016B   24161.57593930  .00002589  00000-0  48415-3 0  9997
2 29108  98.4176 143.2545 0001764  86.8746 273.2659 14.65772846964832
0 NPP
1 37849U 11061A   24161.57118519  .00000223  00000-0  12640-3 0  9994
2 37849  98.7221  99.6656 0000736  62.1818 297.9433 14.19580711653799
0 CLOUDSAT
1 29107U 06016A   24161.55624121  .00003125  00000-0  39626-3 0  9992
2 29107  98.4075 146.7767 0005523 176.7741 183.3507 14.82505479965035
0 SENTINEL 2A
1 40697U 15028A   24161.55024015  .00000332  00000-0  14344-3 0  9995
2 40697  98.5687 235.9284 0001188  97.6940 262.4378 14.30815927468243
0 ISS (ZARYA)
1 25544U 98067A   24161.52738445  .00019754  00000-0  34808-3 0  9994
2 25544  51.6388 353.2358 0008156 276.6138  83.3922 15.50390443457361
0 PACE
1 58928U 24025A   24161.41329022  .00001273  00000-0  24352-3 0  9994
2 58928  98.0950  93.1153 0001420  65.5739 294.5612 14.65541535 17881
0 PREFIRE-1
1 59881U 24099A   24161.30678013  .00005777  00000-0  33994-3 0  9994
2 59881  97.4965  18.8875 0012930 248.9273 111.0575 15.11956440  2266
0 PACE-old
1 58928U 24025A   24100.57665687  .00000790  00000-0  15511-3 0  9994
2 58928  98.0915  33.2046 0001579 103.8916 256.2463 14.65355610  8972
0 PACE-older
1 58928U 24025A   24070.80430593  .00000887  00000-0  17326-3 0  9995
2 58928  98.0892   3.9054 0000917  86.6629 273.4679 14.65285655  4611
